{"type": "FeatureCollection", "features": [ {"type": "Feature", "properties": {"norad_id": 32152, "name": "FENGYUN 1C DEB", "group": "fengyun-1c-debris", "lat": 22.894966202520067, "lon": -37.62591483026718, "alt_km": 691.5143144171016, "timestamp": "2025-12-03T22:42:32.919868+00:00", "meta": {"OBJECT_NAME": "FENGYUN 1C DEB", "OBJECT_ID": "1999-025CSW", "EPOCH": "2025-12-03T05:29:56.280768", "MEAN_MOTION": 14.56444203, "ECCENTRICITY": 0.0055362, "INCLINATION": 98.7598, "RA_OF_ASC_NODE": 137.8876, "ARG_OF_PERICENTER": 230.314, "MEAN_ANOMALY": 129.3167, "EPHEMERIS_TYPE": 0, "CLASSIFICATION_TYPE": "U", "NORAD_CAT_ID": 32152, "ELEMENT_SET_NO": 999, "REV_AT_EPOCH": 62474, "BSTAR": 0.0025797, "MEAN_MOTION_DOT": 0.00011665, "MEAN_MOTION_DDOT": 0}, "tle": {"line1": "1 32152U 99025CSW 25337.22912362  .00011665  00000+0  25797-2 0  9995", "line2": "2 32152  98.7598 137.8876 0055362 230.3140 129.3167 14.56444203624740"}}, "geometry": {"type": "Point", "coordinates": [-37.62591483026718, 22.894966202520067]}}, {"type": "Feature", "properties": {"norad_id": 32153, "name": "FENGYUN 1C DEB", "group": "fengyun-1c-debris", "lat": 18.53444681278197, "lon": 177.56207067390818, "alt_km": 824.9150370800444, "timestamp": "2025-12-03T22:42:32.919878+00:00", "meta": {"OBJECT_NAME": "FENGYUN 1C DEB", "OBJECT_ID": "1999-025CSX", "EPOCH": "2025-12-01T12:36:09.592128", "MEAN_MOTION": 14.48662778, "ECCENTRICITY": 0.02070632, "INCLINATION": 98.7701, "RA_OF_ASC_NODE": 178.0134, "ARG_OF_PERICENTER": 255.2407, "MEAN_ANOMALY": 102.576, "EPHEMERIS_TYPE": 0, "CLASSIFICATION_TYPE": "U", "NORAD_CAT_ID": 32153, "ELEMENT_SET_NO": 999, "REV_AT_EPOCH": 97061, "BSTAR": 0.00036967855, "MEAN_MOTION_DOT": 1.766e-05, "MEAN_MOTION_DDOT": 0}, "tle": {"line1": "1 32153U 99025CSX 25335.52511102  .00001766  00000+0  36968-3 0  9998", "line2": "2 32153  98.7701 178.0134 0207063 255.2407 102.5760 14.48662778970612"}}, "geometry": {"type": "Point", "coordinates": [177.56207067390818, 18.53444681278197]}}, {"type": "Feature", "properties": {"norad_id": 32155, "name": "FENGYUN 1C DEB", "group": "fengyun-1c-debris", "lat": 43.24045883839826, "lon": 95.78830900854999, "alt_km": 810.3056731018542, "timestamp": "2025-12-03T22:42:32.919887+00:00", "meta": {"OBJECT_NAME": "FENGYUN 1C DEB", "OBJECT_ID": "1999-025CSZ", "EPOCH": "2025-11-30T01:53:48.632640", "MEAN_MOTION": 14.32890455, "ECCENTRICITY": 0.00691431, "INCLINATION": 98.9496, "RA_OF_ASC_NODE": 263.2731, "ARG_OF_PERICENTER": 277.7319, "MEAN_ANOMALY": 81.6016, "EPHEMERIS_TYPE": 0, "CLASSIFICATION_TYPE": "U", "NORAD_CAT_ID": 32155, "ELEMENT_SET_NO": 999, "REV_AT_EPOCH": 70041, "BSTAR": 0.00066630415, "MEAN_MOTION_DOT": 1.821e-05, "MEAN_MOTION_DDOT": 0}, "tle": {"line1": "1 32155U 99025CSZ 25334.07903510  .00001821  00000+0  66630-3 0  9998", "line2": "2 32155  98.9496 263.2731 0069143 277.7319  81.6016 14.32890455700411"}}, "geometry": {"type": "Point", "coordinates": [95.78830900854999, 43.24045883839826]}}, {"type": "Feature", "properties": {"norad_id": 32156, "name": "FENGYUN 1C DEB", "group": "fengyun-1c-debris", "lat": 3.6984509607241134, "lon": -32.55645329045775, "alt_km": 791.0632976528377, "timestamp": "2025-12-03T22:42:32.919896+00:00", "meta": {"OBJECT_NAME": "FENGYUN 1C DEB", "OBJECT_ID": "1999-025CTA", "EPOCH": "2025-11-28T04:22:59.204352", "MEAN_MOTION": 14.31912456, "ECCENTRICITY": 0.00824268, "INCLINATION": 99.3546, "RA_OF_ASC_NODE": 140.6244, "ARG_OF_PERICENTER": 99.0063, "MEAN_ANOMALY": 262.0458, "EPHEMERIS_TYPE": 0, "CLASSIFICATION_TYPE": "U", "NORAD_CAT_ID": 32156, "ELEMENT_SET_NO": 999, "REV_AT_EPOCH": 64612, "BSTAR": 0.00036827986, "MEAN_MOTION_DOT": 9.74e-06, "MEAN_MOTION_DDOT": 0}, "tle": {"line1": "1 32156U 99025CTA 25332.18262968  .00000974  00000+0  36828-3 0  9998", "line2": "2 32156  99.3546 140.6244 0082426  99.0063 262.0458 14.31912456646127"}}, "geometry": {"type": "Point", "coordinates": [-32.55645329045775, 3.6984509607241134]}}, {"type": "Feature", "properties": {"norad_id": 32160, "name": "FENGYUN 1C DEB", "group": "fengyun-1c-debris", "lat": 14.761890667422028, "lon": -42.8149108532174, "alt_km": 812.5401335191682, "timestamp": "2025-12-03T22:42:32.919905+00:00", "meta": {"OBJECT_NAME": "FENGYUN 1C DEB", "OBJECT_ID": "1999-025CTE", "EPOCH": "2025-12-02T05:51:27.330048", "MEAN_MOTION": 14.37522082, "ECCENTRICITY": 0.0082504, "INCLINATION": 98.8812, "RA_OF_ASC_NODE": 133.0663, "ARG_OF_PERICENTER": 29.8509, "MEAN_ANOMALY": 330.7345, "EPHEMERIS_TYPE": 0, "CLASSIFICATION_TYPE": "U", "NORAD_CAT_ID": 32160, "ELEMENT_SET_NO": 999, "REV_AT_EPOCH": 95736, "BSTAR": 0.00054839, "MEAN_MOTION_DOT": 1.661e-05, "MEAN_MOTION_DDOT": 0}, "tle": {"line1": "1 32160U 99025CTE 25336.24406632  .00001661  00000+0  54839-3 0  9998", "line2": "2 32160  98.8812 133.0663 0082504  29.8509 330.7345 14.37522082957363"}}, "geometry": {"type": "Point", "coordinates": [-42.8149108532174, 14.761890667422028]}}, {"type": "Feature", "properties": {"norad_id": 32161, "name": "FENGYUN 1C DEB", "group": "fengyun-1c-debris", "lat": 12.398842813085299, "lon": 80.89617437608742, "alt_km": 850.2536134184738, "timestamp": "2025-12-03T22:42:32.919914+00:00", "meta": {"OBJECT_NAME": "FENGYUN 1C DEB", "OBJECT_ID": "1999-025CTF", "EPOCH": "2025-12-03T02:05:41.290080", "MEAN_MOTION": 14.01850718, "ECCENTRICITY": 0.01352524, "INCLINATION": 98.8291, "RA_OF_ASC_NODE": 82.0226, "ARG_OF_PERICENTER": 307.2576, "MEAN_ANOMALY": 51.6317, "EPHEMERIS_TYPE": 0, "CLASSIFICATION_TYPE": "U", "NORAD_CAT_ID": 32161, "ELEMENT_SET_NO": 999, "REV_AT_EPOCH": 63294, "BSTAR": 0.00046609948, "MEAN_MOTION_DOT": 7.24e-06, "MEAN_MOTION_DDOT": 0}, "tle": {"line1": "1 32161U 99025CTF 25337.08728345  .00000724  00000+0  46610-3 0  9997", "line2": "2 32161  98.8291  82.0226 0135252 307.2576  51.6317 14.01850718632942"}}, "geometry": {"type": "Point", "coordinates": [80.89617437608742, 12.398842813085299]}}, {"type": "Feature", "properties": {"norad_id": 32162, "name": "FENGYUN 1C DEB", "group": "fengyun-1c-debris", "lat": -68.82878872634556, "lon": 47.34409026457659, "alt_km": 695.5575928697081, "timestamp": "2025-12-03T22:42:32.919924+00:00", "meta": {"OBJECT_NAME": "FENGYUN 1C DEB", "OBJECT_ID": "1999-025CTG", "EPOCH": "2025-12-03T01:40:46.349760", "MEAN_MOTION": 14.61809926, "ECCENTRICITY": 0.00478765, "INCLINATION": 99.4653, "RA_OF_ASC_NODE": 20.8265, "ARG_OF_PERICENTER": 199.6333, "MEAN_ANOMALY": 160.3022, "EPHEMERIS_TYPE": 0, "CLASSIFICATION_TYPE": "U", "NORAD_CAT_ID": 32162, "ELEMENT_SET_NO": 999, "REV_AT_EPOCH": 94777, "BSTAR": 0.001930688, "MEAN_MOTION_DOT": 9.749e-05, "MEAN_MOTION_DDOT": 0}, "tle": {"line1": "1 32162U 99025CTG 25337.06998090  .00009749  00000+0  19307-2 0  9990", "line2": "2 32162  99.4653  20.8265 0047876 199.6333 160.3022 14.61809926947775"}}, "geometry": {"type": "Point", "coordinates": [47.34409026457659, -68.82878872634556]}}, {"type": "Feature", "properties": {"norad_id": 32167, "name": "FENGYUN 1C DEB", "group": "fengyun-1c-debris", "lat": 51.00117102910192, "lon": -37.92357630149591, "alt_km": 682.2555335905217, "timestamp": "2025-12-03T22:42:32.919933+00:00", "meta": {"OBJECT_NAME": "FENGYUN 1C DEB", "OBJECT_ID": "1999-025CTM", "EPOCH": "2025-12-02T04:31:04.305792", "MEAN_MOTION": 14.30943689, "ECCENTRICITY": 0.01648923, "INCLINATION": 98.4751, "RA_OF_ASC_NODE": 330.9721, "ARG_OF_PERICENTER": 88.2816, "MEAN_ANOMALY": 273.7246, "EPHEMERIS_TYPE": 0, "CLASSIFICATION_TYPE": "U", "NORAD_CAT_ID": 32167, "ELEMENT_SET_NO": 999, "REV_AT_EPOCH": 62524, "BSTAR": 0.00035916746, "MEAN_MOTION_DOT": 1.051e-05, "MEAN_MOTION_DDOT": 0}, "tle": {"line1": "1 32167U 99025CTM 25336.18824428  .00001051  00000+0  35917-3 0  9994", "line2": "2 32167  98.4751 330.9721 0164892  88.2816 273.7246 14.30943689625240"}}, "geometry": {"type": "Point", "coordinates": [-37.92357630149591, 51.00117102910192]}}, {"type": "Feature", "properties": {"norad_id": 32168, "name": "FENGYUN 1C DEB", "group": "fengyun-1c-debris", "lat": -72.99214017838547, "lon": 87.31296890889288, "alt_km": 785.8469316777882, "timestamp": "2025-12-03T22:42:32.919942+00:00", "meta": {"OBJECT_NAME": "FENGYUN 1C DEB", "OBJECT_ID": "1999-025CTN", "EPOCH": "2025-12-03T10:56:49.879104", "MEAN_MOTION": 13.85965652, "ECCENTRICITY": 0.0242688, "INCLINATION": 101.6572, "RA_OF_ASC_NODE": 44.2578, "ARG_OF_PERICENTER": 260.6008, "MEAN_ANOMALY": 96.7629, "EPHEMERIS_TYPE": 0, "CLASSIFICATION_TYPE": "U", "NORAD_CAT_ID": 32168, "ELEMENT_SET_NO": 999, "REV_AT_EPOCH": 63351, "BSTAR": 0.0054926, "MEAN_MOTION_DOT": 7.899e-05, "MEAN_MOTION_DDOT": 0}, "tle": {"line1": "1 32168U 99025CTN 25337.45613286  .00007899  00000+0  54926-2 0  9990", "line2": "2 32168 101.6572  44.2578 0242688 260.6008  96.7629 13.85965652633513"}}, "geometry": {"type": "Point", "coordinates": [87.31296890889288, -72.99214017838547]}}, {"type": "Feature", "properties": {"norad_id": 32169, "name": "FENGYUN 1C DEB", "group": "fengyun-1c-debris", "lat": 18.943628401594413, "lon": -10.812753506372273, "alt_km": 647.2630987834991, "timestamp": "2025-12-03T22:42:32.919952+00:00", "meta": {"OBJECT_NAME": "FENGYUN 1C DEB", "OBJECT_ID": "1999-025CTP", "EPOCH": "2025-12-02T06:41:30.664032", "MEAN_MOTION": 14.66905242, "ECCENTRICITY": 0.0034102, "INCLINATION": 98.5596, "RA_OF_ASC_NODE": 164.4842, "ARG_OF_PERICENTER": 154.8135, "MEAN_ANOMALY": 205.474, "EPHEMERIS_TYPE": 0, "CLASSIFICATION_TYPE": "U", "NORAD_CAT_ID": 32169, "ELEMENT_SET_NO": 999, "REV_AT_EPOCH": 96465, "BSTAR": 0.0058344, "MEAN_MOTION_DOT": 0.00033005, "MEAN_MOTION_DDOT": 0}, "tle": {"line1": "1 32169U 99025CTP 25336.27882713  .00033005  00000+0  58344-2 0  9999", "line2": "2 32169  98.5596 164.4842 0034102 154.8135 205.4740 14.66905242964652"}}, "geometry": {"type": "Point", "coordinates": [-10.812753506372273, 18.943628401594413]}}]}